[{"OBJECT_NAME":"HERMES-3","OBJECT_ID":"2025-052BR","EPOCH":"2026-03-09T22:30:01.073952","MEAN_MOTION":15.30039786,"ECCENTRICITY":0.00079928,"INCLINATION":97.3987,"RA_OF_ASC_NODE":324.6131,"ARG_OF_PERICENTER":112.9583,"MEAN_ANOMALY":247.2502,"EPHEMERIS_TYPE":0,"CLASSIFICATION_TYPE":"U","NORAD_CAT_ID":63835,"ELEMENT_SET_NO":999,"REV_AT_EPOCH":5486,"BSTAR":0.0006995793,"MEAN_MOTION_DOT":0.00020316,"MEAN_MOTION_DDOT":0},{"OBJECT_NAME":"STARLINK-36441","OBJECT_ID":"2026-008AA","EPOCH":"2026-03-09T14:12:07.041024","MEAN_MOTION":15.27568643,"ECCENTRICITY":0.0001634,"INCLINATION":42.9987,"RA_OF_ASC_NODE":206.0758,"ARG_OF_PERICENTER":278.6295,"MEAN_ANOMALY":81.4372,"EPHEMERIS_TYPE":0,"CLASSIFICATION_TYPE":"U","NORAD_CAT_ID":67469,"ELEMENT_SET_NO":999,"REV_AT_EPOCH":955,"BSTAR":0.00085882,"MEAN_MOTION_DOT":0.00023438,"MEAN_MOTION_DDOT":0}]
